OrganizationType,District,OrganizationCode,OrganizationName,Street,City,State,ZIP,Phone,Fax,Website,EdProgram,ProgramType,InterDistrictMagnet,PreKindergarten,Kindergarten,Grade01,Grade02,Grade03,Grade04,Grade05,Grade06,Grade07,Grade08,Grade09,Grade10,Grade11,Grade12,SchoolCT,longitude,latitude
Public Charter Schools,Achievement First Hartford Academy Inc. District,2880113,Achievement First Hartford Academy Inc.,305 Greenfield Street,Hartford,CT,6112,860-695-6685,860-722-8138,www.achievementfirst.org,NA,NA,NA,0,1,1,1,1,1,1,1,1,1,1,1,1,1,"Achievement First Hartford Academy Inc., Hartford, CT",-72.6973441,41.7839665
Public Charter Schools,Amistad Academy District,2795113,Amistad Academy,130 Edgewood Avenue,New Haven,CT,6511,203-772-7000,203-772-2520,www.achievementfirst.org,NA,NA,NA,0,1,1,1,1,1,1,1,1,1,1,1,1,1,"Amistad Academy, New Haven, CT",-72.9478799,41.2934662
Public Schools,Ansonia School District,26111,Ansonia High School,20 Pulaski Hwy.,Ansonia,CT,06401-2561,203-736-5060,NA,www.ansonia.org/schools/high/high.asp,NA,NA,NA,0,0,0,0,0,0,0,0,0,0,1,1,1,1,"Ansonia High School, Ansonia, CT",-73.0656051,41.3268268
Public Schools,Bethel School District,96111,Bethel High School,300 Whittlesey Dr.,Bethel,CT,06801-1517,203-794-8600,NA,www.bethel.k12.ct.us/schools/bethel_high_school,NA,NA,NA,0,0,0,0,0,0,0,0,0,0,1,1,1,1,"Bethel High School, Bethel, CT",-73.3938593,41.3782134
Public Schools,Bloomfield School District,116111,Bloomfield High School,5 Huckleberry Ln.,Bloomfield,CT,06002-3190,860-286-2630,860-242-9491,www.bloomfieldschools.org,NA,NA,NA,0,0,0,0,0,0,0,0,0,0,1,1,1,1,"Bloomfield High School, Bloomfield, CT",-72.7260467,41.8278753
Public Schools,Bloomfield School District,116311,Global Experience Magnet School,"44 Griffin Rd., South",Bloomfield,CT,6002,860-769-6600,860-769-6605,www.bloomfieldschools.org,NA,NA,Yes,0,0,0,0,0,0,0,1,1,1,1,1,1,1,"Global Experience Magnet School, Bloomfield, CT",-72.7365741,41.871232
Public Schools,Branford School District,146111,Branford High School,185 East Main St.,Branford,CT,06405-3767,203-488-7291,NA,www.branfordhigh.org/,NA,NA,NA,0,0,0,0,0,0,0,0,0,0,1,1,1,1,"Branford High School, Branford, CT",-72.8014264,41.2876455
Public Schools,Bridgeport School District,150811,"Aerospace/Hydrospace, Engineering and Physical Sciences HS at the Fairchild-Wheeler Magnet Campus",840 Old Town Road,Bridgeport,CT,6606,203-275-3300,NA,bridgeportedu.com,NA,NA,Yes,0,0,0,0,0,0,0,0,0,0,1,1,1,1,"Aerospace/Hydrospace, Engineering and Physical Sciences HS at the Fairchild-Wheeler Magnet Campus, Bridgeport, CT",-73.1848239,41.22511
Public Schools,Bridgeport School District,156111,Bassick High School,1181 Fairfield Ave.,Bridgeport,CT,06605-1119,203-576-7350,NA,bridgeport.ct.schoolwebpages.com/education/school/school.php?sectionid350,NA,NA,NA,0,0,0,0,0,0,0,0,0,0,1,1,1,1,"Bassick High School, Bridgeport, CT",-73.2071821,41.1732849
Public Schools,Bridgeport School District,150611,"Biotechnology, Research and Zoological Studies HS at the Fairchild-Wheeler Magnet Campus",840 Old Town Road,Bridgeport,CT,6606,203-275-3300,NA,bridgeportedu.com,NA,NA,Yes,0,0,0,0,0,0,0,0,0,0,1,1,1,1,"Biotechnology, Research and Zoological Studies HS at the Fairchild-Wheeler Magnet Campus, Bridgeport, CT",-73.1848239,41.22511
Public Schools,Bridgeport School District,156211,Central High School,1 Lincoln Blvd.,Bridgeport,CT,06606-5502,203-576-7377,NA,bridgeport.ct.schoolwebpages.com/education/school/school.php?sectionid351,NA,NA,NA,0,0,0,0,0,0,0,0,0,0,1,1,1,1,"Central High School, Bridgeport, CT",-73.2054877,41.1889732
Public Schools,Bridgeport School District,151511,Information Technology and Software Engineering High School at the Fairchild-Wheeler Magnet Campus,840 Old Town Road,Bridgeport,CT,6606,203-275-3300,NA,bridgeportedu.com,NA,NA,Yes,0,0,0,0,0,0,0,0,0,0,1,1,1,1,"Information Technology and Software Engineering High School at the Fairchild-Wheeler Magnet Campus, Bridgeport, CT",-73.1848239,41.22511
Public Schools,Bridgeport School District,156311,Warren Harding High School,1734 Central Ave.,Bridgeport,CT,06610-2763,203-576-7330,NA,bridgeport.ct.schoolwebpages.com/education/school/school.php?sectionid352,NA,NA,NA,0,0,0,0,0,0,0,0,0,0,1,1,1,1,"Warren Harding High School, Bridgeport, CT",-73.1668237,41.1922148
Public Schools,Bristol School District,176111,Bristol Central High School,480 Wolcott St.,Bristol,CT,06010-6480,860-584-7735,NA,NA,NA,NA,NA,0,0,0,0,0,0,0,0,0,0,1,1,1,1,"Bristol Central High School, Bristol, CT",-72.9607174,41.6612449
Public Schools,Bristol School District,176211,Bristol Eastern High School,632 King St.,Bristol,CT,06010-4477,860-584-7876,NA,NA,NA,NA,NA,0,0,0,0,0,0,0,0,0,0,1,1,1,1,"Bristol Eastern High School, Bristol, CT",-72.9220947,41.6859286
Public Schools,Brookfield School District,186111,Brookfield High School,45 Long Meadow Hill Rd.,Brookfield,CT,06804-1311,203-775-7725,NA,www.brookfield.k12.ct.us/brookfield-high-school,NA,NA,NA,0,0,0,0,0,0,0,0,0,0,1,1,1,1,"Brookfield High School, Brookfield, CT",-73.3910219,41.4785235
Public Schools,Canton School District,236111,Canton High School,76 Simonds Avenue,Canton,CT,06019-1207,860-693-7707,NA,www.cantonschools.org/chs,NA,NA,NA,0,0,0,0,0,0,0,0,0,0,1,1,1,1,"Canton High School, Canton, CT",-72.9166189,41.8263299
Public Charter Schools,Capital Preparatory Harbor School Inc. District,2970113,Capital Preparatory Harbor School Inc.,777 Main Street,Bridgeport,CT,6604,475-422-5900,NA,www.capitalprepharbor.org,NA,NA,NA,0,1,1,1,1,1,1,1,1,1,1,1,1,1,"Capital Preparatory Harbor School Inc., Bridgeport, CT",-72.6756774,41.7726195
Regional Education Service Center Schools,Capitol Region Education Council,2415114,Academy of Aerospace and Engineering,1101 Kennedy Road,Windsor,CT,6095,860-757-6347,NA,www.crecschools.org/,NA,NA,Yes,0,0,0,0,0,0,0,1,1,1,1,1,1,1,"Academy of Aerospace and Engineering, Windsor, CT",-72.6530267,41.895294
Regional Education Service Center Schools,Capitol Region Education Council,2416514,Academy of Science and Innovation,600 Slater Road,New Britain,CT,6053,860-298-0602,NA,www.crec.org/schools/magnet.php,NA,NA,Yes,0,0,0,0,0,0,0,1,1,1,1,1,1,1,"Academy of Science and Innovation, New Britain, CT",-72.8101891,41.6843968
Regional Education Service Center Schools,Capitol Region Education Council,2416414,Greater Hartford Academy of  the Arts High School - Full Time,15 Vernon St.,Hartford,CT,6106,860-757-6321,NA,www.crec.org/schools/magnet.php,NA,NA,Yes,0,0,0,0,0,0,0,0,0,0,1,1,1,1,"Greater Hartford Academy of  the Arts High School - Full Time, Hartford, CT",-72.6838407,41.7510704
Regional Education Service Center Schools,Capitol Region Education Council,2415214,Public Safety Academy,1617 King Street,Enfield,CT,6082,860-253-0274,NA,www.crec.org/schools/magnet.php,NA,NA,Yes,0,0,0,0,0,0,0,0,0,1,1,1,1,1,"Public Safety Academy, Enfield, CT",-72.5999146,41.9480544
Public Schools,Cheshire School District,256111,Cheshire High School,525 South Main St.,Cheshire,CT,06410-3198,203-250-2511,NA,NA,NA,NA,NA,0,0,0,0,0,0,0,0,0,0,1,1,1,1,"Cheshire High School, Cheshire, CT",-72.9070268,41.4901527
Public Schools,Colchester School District,286111,Bacon Academy,611 Norwich Ave.,Colchester,CT,06415-2142,860-537-2378,860-537-5440,www.colchesterct.org,NA,NA,NA,0,0,0,0,0,0,0,0,0,0,1,1,1,1,"Bacon Academy, Colchester, CT",-72.3022522,41.5768416
Public Charter Schools,Common Ground High School District,2686113,Common Ground High School,358 Springside Ave.,New Haven,CT,6515,203-389-4333,NA,www.commongroundct.org,NA,NA,NA,0,0,0,0,0,0,0,0,0,0,1,1,1,1,"Common Ground High School, New Haven, CT",-72.959558,41.3381619
CT Technical Education and Career Schools,Connecticut Technical Education and Career System,9001916,E. C. Goodwin Technical High School,735 Slater Rd.,New Britain,CT,06053-2200,860-827-7736,NA,www.cttech.org/GOODWIN/index.htm,NA,NA,NA,0,0,0,0,0,0,0,0,0,0,1,1,1,1,"E. C. Goodwin Technical High School, New Britain, CT",-72.8056092,41.6864745
CT Technical Education and Career Schools,Connecticut Technical Education and Career System,9001416,Eli Whitney Technical High School,100 Fairview Ave,Hamden,CT,6514,203-397-4031,NA,www.cttech.org/WHITNEY/index.htm,NA,NA,NA,0,0,0,0,0,0,0,0,0,0,1,1,1,1,"Eli Whitney Technical High School, Hamden, CT",-72.9420807,41.3420336
CT Technical Education and Career Schools,Connecticut Technical Education and Career System,9002716,Ella T. Grasso Technical High School,189 Fort Hill Rd.,Groton,CT,06340-4803,860-448-0220,NA,www.cttech.org/GRASSO/index.htm,NA,NA,NA,0,0,0,0,0,0,0,0,0,0,1,1,1,1,"Ella T. Grasso Technical High School, Groton, CT",-72.0169418,41.340947
CT Technical Education and Career Schools,Connecticut Technical Education and Career System,9002516,Emmett O'Brien Technical High School,141 Prindle Ave.,Ansonia,CT,06401-2561,203-732-1800,NA,www.cttech.org/OBRIEN/index.htm,NA,NA,NA,0,0,0,0,0,0,0,0,0,0,1,1,1,1,"Emmett O'Brien Technical High School, Ansonia, CT",-73.063952,41.3345319
CT Technical Education and Career Schools,Connecticut Technical Education and Career System,9001316,H. H. Ellis Technical High School,613 Upper Maple St.,Danielson,CT,6239,860-412-7500,860-779-2565,www.cttech.org/ellis/index.htm,NA,NA,NA,0,0,0,0,0,0,0,0,0,0,1,1,1,1,"H. H. Ellis Technical High School, Danielson, CT",-71.894179,41.81902
CT Technical Education and Career Schools,Connecticut Technical Education and Career System,9001216,Henry Abbott Technical High School,21 Hayestown Ave.,Danbury,CT,6811,203-797-4460,NA,www.cttech.org/ABBOTT/index.htm,NA,NA,NA,0,0,0,0,0,0,0,0,0,0,1,1,1,1,"Henry Abbott Technical High School, Danbury, CT",-73.4544617,41.4136865
CT Technical Education and Career Schools,Connecticut Technical Education and Career System,9002116,J. M. Wright Technical High School,120 Bridge St.,Stamford,CT,6905,203-324-7363,NA,www.cttech.org/wright/index.htm,NA,NA,NA,0,0,0,0,0,0,0,0,0,0,1,1,1,1,"J. M. Wright Technical High School, Stamford, CT",-73.5477359,41.0621121
CT Technical Education and Career Schools,Connecticut Technical Education and Career System,9002016,Norwich Technical High School,7 Mahan Drive,Norwich,CT,06360-7044,860-889-8453,NA,www.cttech.org/norwich/index.htm,NA,NA,NA,0,0,0,0,0,0,0,0,0,0,1,1,1,1,"Norwich Technical High School, Norwich, CT",-72.0778441,41.5495998
CT Technical Education and Career Schools,Connecticut Technical Education and Career System,9002216,Oliver Wolcott Technical High School,75 Oliver St.,Torrington,CT,06790-3859,860-496-5300,NA,www.cttech.org/WOLCOTT/index.htm,NA,NA,NA,0,0,0,0,0,0,0,0,0,0,1,1,1,1,"Oliver Wolcott Technical High School, Torrington, CT",-73.111748,41.811456
CT Technical Education and Career Schools,Connecticut Technical Education and Career System,9002616,Platt Technical High School,600 Orange Ave.,Milford,CT,06461-2157,203-783-5300,NA,www.cttech.org/platt/index.htm,NA,NA,NA,0,0,0,0,0,0,0,0,0,0,1,1,1,1,"Platt Technical High School, Milford, CT",-73.0464059,41.2496685
CT Technical Education and Career Schools,Connecticut Technical Education and Career System,9001816,Vinal Technical High School,60 Daniels St.,Middletown,CT,06457-4941,860-344-7100,NA,www.cttech.org/VINAL/index.htm,NA,NA,NA,0,0,0,0,0,0,0,0,0,0,1,1,1,1,"Vinal Technical High School, Middletown, CT",-72.6745955,41.5282037
CT Technical Education and Career Schools,Connecticut Technical Education and Career System,9002316,W. F. Kaynor Technical High School,43 Tompkins St.,Waterbury,CT,06708-1416,203-596-4302,NA,www.cttech.org/KAYNOR/index.htm,NA,NA,NA,0,0,0,0,0,0,0,0,0,0,1,1,1,1,"W. F. Kaynor Technical High School, Waterbury, CT",-73.066431,41.575529
Public Schools,Coventry School District,326111,Coventry High School,78 Ripley Hill Road,Coventry,CT,06238-1653,860-742-7346,NA,www.coventrypublicschools.org,NA,NA,NA,0,0,0,0,0,0,0,0,0,0,1,1,1,1,"Coventry High School, Coventry, CT",-72.3121622,41.782122
Public Schools,Cromwell School District,336111,Cromwell High School,1 Donald Harris Dr.,Cromwell,CT,06416-1698,860-632-4841,NA,www.cromwell.k12.ct.us,NA,NA,NA,0,0,0,0,0,0,0,0,0,0,1,1,1,1,"Cromwell High School, Cromwell, CT",-72.6600495,41.6149599
Public Schools,Danbury School District,346211,Alternative Center For Excellence,26 Locust Ave.,Danbury,CT,06810-6147,203-797-4786,NA,NA,NA,NA,NA,0,0,0,0,0,0,0,0,0,0,1,1,1,1,"Alternative Center For Excellence, Danbury, CT",-73.4413943,41.4014741
Public Schools,Danbury School District,346111,Danbury High School,43 Clapboard Ridge Rd.,Danbury,CT,06811-4529,203-797-4803,NA,www.danbury.k12.ct.us/dhsweb/Main/,NA,NA,NA,0,0,0,0,0,0,0,0,0,0,1,1,1,1,"Danbury High School, Danbury, CT",-73.4703176,41.4164699
Public Schools,Darien School District,356111,Darien High School,80 High School Ln.,Darien,CT,06820-3399,203-655-3981,NA,www.darienps.org/dhs/,NA,NA,NA,0,0,0,0,0,0,0,0,0,0,1,1,1,1,"Darien High School, Darien, CT",-73.4911221,41.0856753
Public Schools,Derby School District,376111,Derby High School,75 Chatfield Street,Derby,CT,6418,203-736-5032,NA,https://www.derbyps.org/page.cfm?p4,NA,NA,NA,0,0,0,0,0,0,0,0,0,0,1,1,1,1,"Derby High School, Derby, CT",-73.0979851,41.3336597
Public Schools,East Granby School District,406111,East Granby High School,95 South Main St.,East Granby,CT,06026-9550,860-653-2541,NA,www.eastgranby.k12.ct.us,NA,NA,NA,0,0,0,0,0,0,0,0,0,0,1,1,1,1,"East Granby High School, East Granby, CT",-72.7280786,41.9329394
Public Schools,East Haddam School District,416111,Nathan Hale-Ray High School,"15 School Drive, P.O. Box 404",Moodus,CT,06469-0404,860-873-5065,860-873-5074,www.easthaddamschools.org/nhrhs/,NA,NA,NA,0,0,0,0,0,0,0,0,0,0,1,1,1,1,"Nathan Hale-Ray High School, Moodus, CT",-72.4434614,41.493033
Public Schools,East Hampton School District,426111,East Hampton High School,15 North Maple St.,East Hampton,CT,06424-1064,860-365-4030,NA,www.easthamptonct.org,NA,NA,NA,0,0,0,0,0,0,0,0,0,0,1,1,1,1,"East Hampton High School, East Hampton, CT",-72.5127816,41.5824021
Public Schools,East Hartford School District,436211,East Hartford High School,869 Forbes St.,East Hartford,CT,06118-1921,860-622-5200,NA,NA,NA,NA,NA,0,0,0,0,0,0,0,0,0,0,1,1,1,1,"East Hartford High School, East Hartford, CT",-72.6049089,41.7547461
Public Schools,East Hartford School District,436411,Stevens Alternate High School,40 Butternut Dr.,East Hartford,CT,6118,860-622-5999,NA,www.,NA,NA,NA,0,0,0,0,0,0,0,0,0,0,1,1,1,1,"Stevens Alternate High School, East Hartford, CT",-72.5954078,41.7560911
Public Schools,East Haven School District,446111,East Haven High School,35 Wheelbarrow Ln.,East Haven,CT,6513,203-468-3254,NA,www.east-haven.k12.ct.us/ehhs/index.html,NA,NA,NA,0,0,0,0,0,0,0,0,0,0,1,1,1,1,"East Haven High School, East Haven, CT",-72.83221,41.329034
Public Schools,East Lyme School District,456111,East Lyme High School,30 Chesterfield Rd.,East Lyme,CT,06333-1244,860-739-6946,NA,NA,NA,NA,NA,0,0,0,0,0,0,0,0,0,0,1,1,1,1,"East Lyme High School, East Lyme, CT",-72.2127308,41.3693373
Public Schools,East Windsor School District,476111,East Windsor High School,76 South Main St.,East Windsor,CT,06088-9741,860-623-3361,NA,eastwindsork12.org,NA,NA,NA,0,0,0,0,0,0,0,0,0,0,1,1,1,1,"East Windsor High School, East Windsor, CT",-72.6116366,41.9011308
Public Schools,Ellington School District,486111,Ellington High School,37 Maple St.,Ellington,CT,06029-3333,860-896-2352,NA,www.ellingtonschools.org,NA,NA,NA,0,0,0,0,0,0,0,0,0,0,1,1,1,1,"Ellington High School, Ellington, CT",-72.4619707,41.9096994
Public Charter Schools,Elm City College Preparatory School District,2890113,Elm City College Preparatory School,407 James Street,New Haven,CT,6513,203-772-7010,203-498-0712,www.achievementfirst.org,NA,NA,NA,0,1,1,1,1,1,1,1,1,1,1,1,1,1,"Elm City College Preparatory School, New Haven, CT",-72.9033373,41.313801
Public Schools,Enfield School District,496111,Enfield High School,1264 Enfield St.,Enfield,CT,06082-4919,860-253-5540,860-253-5555,www.enfieldschools.org,NA,NA,NA,0,0,0,0,0,0,0,0,0,0,1,1,1,1,"Enfield High School, Enfield, CT",-72.5965511,41.9786588
Public Charter Schools,Explorations District,2726113,Explorations,71 Spencer St.,Winsted,CT,6098,860-738-9070,860-738-9092,www.ExplorationsCS.com,NA,NA,NA,0,0,0,0,0,0,0,0,0,0,1,1,1,1,"Explorations, Winsted, CT",-73.0757866,41.9294257
Public Schools,Fairfield School District,516011,Fairfield Ludlowe High School,785 Unquowa Rd.,Fairfield,CT,6824,203-255-7201,NA,fairfieldschools.org/schools/flhs/,NA,NA,NA,0,0,0,0,0,0,0,0,0,0,1,1,1,1,"Fairfield Ludlowe High School, Fairfield, CT",-73.263421,41.1495
Public Schools,Fairfield School District,516211,Fairfield Warde High School,755 Melville Ave.,Fairfield,CT,6825,203-255-8449,NA,fairfieldschools.org/schools/fwhs/,NA,NA,NA,0,0,0,0,0,0,0,0,0,0,1,1,1,1,"Fairfield Warde High School, Fairfield, CT",-73.234124,41.186856
Public Schools,Glastonbury School District,546111,Glastonbury High School,330 Hubbard St.,Glastonbury,CT,06033-3047,860-652-7200,860-652-7267,sites.google.com/a/glastonburyus.org/ghs/,NA,NA,NA,0,0,0,0,0,0,0,0,0,0,1,1,1,1,"Glastonbury High School, Glastonbury, CT",-72.5936241,41.7015655
Public Schools,Granby School District,566111,Granby Memorial High School,315 Salmon Brook St.,Granby,CT,06035-1804,860-844-3014,860-844-3029,www.granby.k12.ct.us,NA,NA,NA,0,0,0,0,0,0,0,0,0,0,1,1,1,1,"Granby Memorial High School, Granby, CT",-72.7926687,41.959961
Public Schools,Greenwich School District,576111,Greenwich High School,10 Hillside Rd.,Greenwich,CT,06830-4835,203-625-8000,NA,www.greenwichschools.org/greenwich-high-school,NA,NA,NA,0,0,0,0,0,0,0,0,0,0,1,1,1,1,"Greenwich High School, Greenwich, CT",-73.6122393,41.0397676
Public Schools,Griswold School District,586211,Griswold High School,267 Slater Ave.,Griswold,CT,6351,860-376-7640,NA,griswold.k12.ct.us/index.cfm?Menu400&Id122,NA,NA,NA,0,0,0,0,0,0,0,0,0,0,1,1,1,1,"Griswold High School, Griswold, CT",-71.981407,41.5953532
Public Schools,Groton School District,596111,Robert E. Fitch High School,101 Groton Long Point Road,Groton,CT,06340-4861,860-449-7200,NA,www.groton.k12.ct.us/WWW/fsr/falcon.htm,NA,NA,NA,0,0,0,0,0,0,0,0,0,0,1,1,1,1,"Robert E. Fitch High School, Groton, CT",-72.0129565,41.3403414
Public Schools,Guilford School District,606111,Guilford High School,605 New England Rd.,Guilford,CT,06437-1838,203-453-2741,NA,ghs.guilfordschools.org,NA,NA,NA,0,0,0,0,0,0,0,0,0,0,1,1,1,1,"Guilford High School, Guilford, CT",-72.7122669,41.3131182
Public Schools,Hamden School District,626111,Hamden High School,2040 Dixwell Ave.,Hamden,CT,06514-2404,203-407-2040,NA,www.hamden.k12.ct.us/,NA,NA,NA,0,0,0,0,0,0,0,0,0,0,1,1,1,1,"Hamden High School, Hamden, CT",-72.9223406,41.367806
Public Schools,Hartford School District,647111,Bulkeley High School,300 Wethersfield Avenue,Hartford,CT,06114-1409,860-695-1011,860-247-3491,bulkeley.hartfordschools.org/,NA,NA,NA,0,0,0,0,0,0,0,0,0,0,1,1,1,1,"Bulkeley High School, Hartford, CT",-72.672916,41.7478466
Public Schools,Hartford School District,646911,Capital Preparatory Magnet School,1304 Main Street,Hartford,CT,6103,860-695-9800,860-722-8520,https://capitalprep.org/,NA,NA,Yes,1,1,1,1,1,1,1,1,1,1,1,1,1,1,"Capital Preparatory Magnet School, Hartford, CT",-72.6756774,41.7726195
Public Schools,Hartford School District,646411,Classical Magnet School,85 Woodland Street,Hartford,CT,6105,860-695-9100,860-722-6449,www.classicalmagnet.org/,NA,NA,Yes,0,0,0,0,0,0,0,1,1,1,1,1,1,1,"Classical Magnet School, Hartford, CT",-72.7014245,41.7731556
Public Schools,Hartford School District,646011,Culinary Arts Academy at Weaver High School,150 Tower Avenue,Hartford,CT,6112,860-695-1733,860-722-6414,https://www.hartfordschools.org/enroll/school-directory-2/culinary-arts-academy/,NA,NA,NA,0,0,0,0,0,0,0,0,0,0,1,1,1,1,"Culinary Arts Academy at Weaver High School, Hartford, CT",-72.7084163,41.8002885
Public Schools,Hartford School District,643611,Global Communications Academy,85 Edwards Street,Hartford,CT,06112-1826,860-695-6020,860-524-5610,https://www.hartfordschools.org/enroll/school-directory-2/global-communications-academy/,NA,NA,NA,0,1,1,1,1,1,1,1,1,1,1,1,1,1,"Global Communications Academy, Hartford, CT",-72.6819128,41.7748311
Public Schools,Hartford School District,647911,Great Path Academy at MCC,"60 Bidwell Street, MS #20",Manchester,CT,6045,860-521-3700,860-512-3701,https://www.manchestercc.edu/great-path-academy/,NA,NA,Yes,0,0,0,0,0,0,0,0,0,0,1,1,1,1,"Great Path Academy at MCC, Manchester, CT",-72.5605992,41.7613718
Public Schools,Hartford School District,647211,HPHS Engineering and Green Technology Academy,55 Forest Street,Hartford,CT,6105,860-695-1315,860-722-8765,aoegt.org/,NA,NA,NA,0,0,0,0,0,0,0,0,0,0,1,1,1,1,"HPHS Engineering and Green Technology Academy, Hartford, CT",-72.7010581,41.7650322
Public Schools,Hartford School District,647411,HPHS Law and Government Academy,55 Forest Street,Hartford,CT,6105,860-695-1320,860-722-8768,https://www.hartfordschools.org/enroll/school-directory-2/hphs-law-government-academy/,NA,NA,NA,0,0,0,0,0,0,0,0,0,0,1,1,1,1,"HPHS Law and Government Academy, Hartford, CT",-72.7012709,41.7650343
Public Schools,Hartford School District,647511,HPHS Nursing and Health Sciences Academy,55 Forest Street,Hartford,CT,6105,860-695-1325,860-722-8764,https://www.hartfordschools.org/enroll/school-directory-2/hphs-academy-of-nursing-and-health-sciences/,NA,NA,NA,0,0,0,0,0,0,0,0,0,0,1,1,1,1,"HPHS Nursing and Health Sciences Academy, Hartford, CT",-72.7010105,41.7652258
Public Schools,Hartford School District,647611,"High School, Inc.",275 Asylum Avenue,Hartford,CT,6103,860-695-7106,860-768-1487,https://highschoolinc.hpsschools.org/,NA,NA,NA,0,0,0,0,0,0,0,0,0,0,1,1,1,1,"High School, Inc., Hartford, CT",-72.6781972,41.767257
Public Schools,Hartford School District,647711,Journalism and Media Academy,150 Tower Street,Hartford,CT,6120,860-695-1818,860-722-6432,jma.hartfordschools.org/,NA,NA,NA,0,0,0,0,0,0,0,0,0,0,1,1,1,1,"Journalism and Media Academy, Hartford, CT",-72.6699439,41.7979146
Public Schools,Hartford School District,641111,Kinsella Magnet School of Performing Arts,65 Van Block Avenue,Hartford,CT,6114,860-695-4140,860-522-0004,www.kinsellamagnet.org/,NA,NA,Yes,1,1,1,1,1,1,1,1,1,1,1,1,1,1,"Kinsella Magnet School of Performing Arts, Hartford, CT",-72.6648944,41.7547741
Public Schools,Hartford School District,646611,Pathways Academy of Technology and Design,2 Pent Road,East Hartford,CT,6118,860-695-9450,860-569-5569,www.pathwaystotechnology.com/,NA,NA,Yes,0,0,0,0,0,0,0,0,0,0,1,1,1,1,"Pathways Academy of Technology and Design, East Hartford, CT",-72.6351421,41.7404581
Public Schools,Hartford School District,646511,Sport and Medical Sciences Academy,280 Huyshope Avenue,Hartford,CT,6106,860-695-6900,860-722-8017,www.sportandmedicalsciences.org/,NA,NA,Yes,0,0,0,0,0,0,0,1,1,1,1,1,1,1,"Sport and Medical Sciences Academy, Hartford, CT",-72.660141,41.7527771
Public Schools,Hartford School District,646711,University High School of Science and Engineering,351 Mark Twain Drive,Hartford,CT,6112,860-695-9020,860-722-6408,uhsse.org/,NA,NA,Yes,0,0,0,0,0,0,0,0,0,0,1,1,1,1,"University High School of Science and Engineering, Hartford, CT",-72.7096237,41.7964781
Public Charter Schools,Highville Charter School District,2860113,Highville Charter School,1 Science Park,New Haven,CT,6511,203-287-0528,203-497-9899,www.highvillecharter.com,NA,NA,NA,1,1,1,1,1,1,1,1,1,1,1,1,1,1,"Highville Charter School, New Haven, CT",-72.9261373,41.3234617
Public Charter Schools,Jumoke Academy District,2610113,Jumoke Academy,834 Asylum Ave.,Hartford,CT,6105,860-527-0575,NA,jumokeacademy.org,NA,NA,NA,1,1,1,1,1,1,1,1,1,1,1,1,1,1,"Jumoke Academy, Hartford, CT",-72.6975367,41.7914702
Public Schools,Killingly School District,696111,Killingly High School,226 Putman Pike,Dayville,CT,6241,860-779-6620,NA,www.killingly.k12.ct.us/khs/,NA,NA,NA,0,0,0,0,0,0,0,0,0,0,1,1,1,1,"Killingly High School, Dayville, CT",-71.8732905,41.8599411
Regional Education Service Center Schools,Learn,2456014,Connecticut River Academy,One Riverside Drive,East Hartford,CT,6118,860-913-2032,NA,NA,NA,NA,Yes,0,0,0,0,0,0,0,0,0,0,1,1,1,1,"Connecticut River Academy, East Hartford, CT",-72.6435964,41.74963
Regional Education Service Center Schools,Learn,2456114,Marine Science Magnet High School of Southeastern Connecticut,130 Shennecossett Road,Groton,CT,6340,860-434-4800,NA,NA,NA,NA,Yes,0,0,0,0,0,0,0,0,0,0,1,1,1,1,"Marine Science Magnet High School of Southeastern Connecticut, Groton, CT",-72.0717215,41.3374157
Public Schools,Lebanon School District,716211,Lyman Memorial High School,917 Exeter Rd.,Lebanon,CT,06249-1742,860-642-7567,860-642-3523,www.lebanonct.org,NA,NA,NA,0,0,0,0,0,0,0,0,0,0,1,1,1,1,"Lyman Memorial High School, Lebanon, CT",-72.2391093,41.6224764
Public Schools,Ledyard School District,726111,Ledyard High School,24 Gallup Hill Rd.,Ledyard,CT,06339-1512,860-464-9600,860-464-1990,lhs.ledyard.net/,NA,NA,NA,0,0,0,0,0,0,0,0,0,0,1,1,1,1,"Ledyard High School, Ledyard, CT",-71.9952506,41.43796
Public Schools,Litchfield School District,746111,Litchfield High School,"14 Plumb Hill Road, P.O. Box 110",Litchfield,CT,6759,860-567-7530,NA,litchfieldschools.org/lhs/lhs.html,NA,NA,NA,0,0,0,0,0,0,0,0,0,0,1,1,1,1,"Litchfield High School, Litchfield, CT",-73.2067537,41.7423231
Public Schools,Madison School District,766111,Daniel Hand High School,286 Green Hill Rd.,Madison,CT,6443,203-245-6350,NA,www.danielhand.org/,NA,NA,NA,0,0,0,0,0,0,0,0,0,0,1,1,1,1,"Daniel Hand High School, Madison, CT",-72.6193037,41.2928204
Public Schools,Manchester School District,776111,Manchester High School,134 MiddleTpke E,Manchester,CT,06040-4260,860-647-3530,860-646-3727,www.mpspride.org/,NA,NA,NA,0,0,0,0,0,0,0,0,0,0,1,1,1,1,"Manchester High School, Manchester, CT",-72.51734,41.7815756
Public Schools,Meriden School District,806211,Orville H. Platt High School,220 Coe Ave.,Meriden,CT,06450-3812,203-235-7963,NA,www.platths.com/,NA,NA,NA,0,0,0,0,0,0,0,0,0,0,1,1,1,1,"Orville H. Platt High School, Meriden, CT",-72.8267207,41.5340038
Public Schools,Middletown School District,836211,Middletown High School,200 LaRosa Lane,Middletown,CT,6457,860-704-4500,NA,NA,NA,NA,NA,0,0,0,0,0,0,0,0,0,0,1,1,1,1,"Middletown High School, Middletown, CT",-72.6788279,41.576121
Public Schools,Milford School District,846311,Joseph A. Foran High School,80 Foran Dr.,Milford,CT,06460-7799,203-783-3502,NA,NA,NA,NA,NA,0,0,0,0,0,0,0,0,0,0,1,1,1,1,"Joseph A. Foran High School, Milford, CT",-73.0128241,41.2192589
Public Schools,Monroe School District,856111,Masuk High School,1014 Monroe Tpke.,Monroe,CT,6468,203-452-5823,NA,www.monroeps.org,NA,NA,NA,0,0,0,0,0,0,0,0,0,0,1,1,1,1,"Masuk High School, Monroe, CT",-73.1942808,41.3489066
Public Schools,Montville School District,866111,Montville High School,800 Old Colchester Rd.,Oakdale,CT,6370,860-848-9208,NA,NA,NA,NA,NA,0,0,0,0,0,0,0,0,0,0,1,1,1,1,"Montville High School, Oakdale, CT",-72.1637177,41.4573862
Public Schools,Naugatuck School District,886111,Naugatuck High School,543 Rubber Ave.,Naugatuck,CT,06770-2887,203-720-5400,NA,www.naugatuckhigh.naugatuck.k12.ct.us/,NA,NA,NA,0,0,0,0,0,0,0,0,0,0,1,1,1,1,"Naugatuck High School, Naugatuck, CT",-73.0719153,41.4917655
Public Schools,New Britain School District,896111,New Britain High School,110 Mill St.,New Britain,CT,06051-3413,860-225-6350,NA,NA,NA,NA,NA,0,0,0,0,0,0,0,0,0,0,1,1,1,1,"New Britain High School, New Britain, CT",-72.7780388,41.6499035
Public Schools,New Canaan School District,906111,New Canaan High School,11 Farm Rd.,New Canaan,CT,06840-6699,203-594-4600,NA,www.ncps-k12.org/Domain/9,NA,NA,NA,0,0,0,0,0,0,0,0,0,0,1,1,1,1,"New Canaan High School, New Canaan, CT",-73.4895453,41.1286974
Public Schools,New Fairfield School District,916111,New Fairfield High School,54 Gillotti Rd.,New Fairfield,CT,06812-2525,203-312-5800,203-312-5803,www.newfairfieldschools.org/nfh/,NA,NA,NA,0,0,0,0,0,0,0,0,0,0,1,1,1,1,"New Fairfield High School, New Fairfield, CT",-73.5076093,41.461007
Public Schools,New Haven School District,936411,Cooperative High School,177 College Street,New Haven,CT,6511,475-220-2400,203-691-2404,www.nhps.net,NA,NA,Yes,0,0,0,0,0,0,0,0,0,0,1,1,1,1,"Cooperative High School, New Haven, CT",-72.929631,41.3054918
Public Schools,New Haven School District,936811,Cortlandt V.R. Creed Health and Sport Sciences High School,88 Bassett Road,North Haven,CT,6473,475-220-6300,203-946-6161,www.nhps.net,NA,NA,Yes,0,0,0,0,0,0,0,0,0,0,1,1,1,1,"Cortlandt V.R. Creed Health and Sport Sciences High School, North Haven, CT",-72.8369562,41.3974636
Public Schools,New Haven School District,931711,Engineering - Science University Magnet School,500 Boston Post Road,West Haven,CT,6516,475-220-6000,203-946-8440,www.nhps.net,NA,NA,Yes,0,0,0,0,0,0,0,1,1,1,1,1,1,1,"Engineering - Science University Magnet School, West Haven, CT",-72.9661733,41.2902012
Public Schools,New Haven School District,936211,James Hillhouse High School,480 Sherman Parkway,New Haven,CT,6511,475-220-7500,203-946-8487,www.nhps.net,NA,NA,NA,0,0,0,0,0,0,0,0,0,0,1,1,1,1,"James Hillhouse High School, New Haven, CT",-72.9394501,41.3222521
Public Schools,New Haven School District,936011,Metropolitan Business Academy,115 Water Street,New Haven,CT,6511,475-220-7700,203-497-7705,www.nhps.net,NA,NA,Yes,0,0,0,0,0,0,0,0,0,0,1,1,1,1,"Metropolitan Business Academy, New Haven, CT",-72.9188338,41.3011808
Public Schools,New Haven School District,937011,New Haven Academy,444 Orange Street,New Haven,CT,6511,475-220-6600,203-946-8428,www.nhps.net,NA,NA,Yes,0,0,0,0,0,0,0,0,0,0,1,1,1,1,"New Haven Academy, New Haven, CT",-72.918814,41.312946
Public Schools,New Haven School District,936711,Sound School,60 South Water St.,New Haven,CT,6519,475-220-2300,203-946-6874,www.nhps.net,NA,NA,NA,0,0,0,0,0,0,0,0,0,0,1,1,1,1,"Sound School, New Haven, CT",-72.9285531,41.2817948
Public Schools,New Haven School District,936111,Wilbur Cross High School,181 Mitchell Dr.,New Haven,CT,6511,475-220-7400,203-946-6932,www.nhps.net,NA,NA,NA,0,0,0,0,0,0,0,0,0,0,1,1,1,1,"Wilbur Cross High School, New Haven, CT",-72.9083016,41.3245699
Public Schools,New London School District,956111,New London High School,490 Jefferson Ave.,New London,CT,6320,860-437-6400,860-437-4321,www.newlondonhighschool.org,NA,NA,NA,0,0,0,0,0,0,0,0,0,0,1,1,1,1,"New London High School, New London, CT",-72.1069792,41.357904
Public Schools,New London School District,951311,Science and Technology Magnet School of Southeastern Connecticut,490 Jefferson Ave,New London,CT,6320,860-437-6496,860-439-7774,www.nlstmhs.org,NA,NA,Yes,0,0,0,0,0,0,0,1,1,1,1,1,1,1,"Science and Technology Magnet School of Southeastern Connecticut, New London, CT",-72.1204912,41.3591203
Public Schools,Newington School District,946111,Newington High School,605 Willard Ave.,Newington,CT,06111-2648,860-666-5611,NA,www.npsct.org/,NA,NA,NA,0,0,0,0,0,0,0,0,0,0,1,1,1,1,"Newington High School, Newington, CT",-72.7357328,41.7008554
Public Schools,Newtown School District,976111,Newtown High School,12 Berkshire Rd.,Sandy Hook,CT,06482-1398,203-426-7646,NA,newtown.k12.ct.us/~nhs/,NA,NA,NA,0,0,0,0,0,0,0,0,0,0,1,1,1,1,"Newtown High School, Sandy Hook, CT",-73.2711026,41.4099636
Public Schools,North Branford School District,996111,North Branford High School,49 Caputo Rd.,North Branford,CT,06471-1021,203-484-1465,NA,www.northbranfordschools.org,NA,NA,NA,0,0,0,0,0,0,0,0,0,0,1,1,1,1,"North Branford High School, North Branford, CT",-72.8003763,41.3359304
Public Schools,North Haven School District,1016111,North Haven High School,221 Elm Street,North Haven,CT,6473,203-239-1641,NA,www.north-haven.k12.ct.us/hs/default.htm,NA,NA,NA,0,0,0,0,0,0,0,0,0,0,1,1,1,1,"North Haven High School, North Haven, CT",-72.8633704,41.3732322
Public Schools,North Stonington School District,1026111,Wheeler High School,298 Norwich/Westerly Rd.,North Stonington,CT,06359-0901,860-535-0377,NA,www.northstonington.k12.ct.us/,NA,NA,NA,0,0,0,0,0,0,0,1,1,1,1,1,1,1,"Wheeler High School, North Stonington, CT",-71.8858121,41.4395732
Public Schools,Norwalk School District,1036211,Brien McMahon High School,300 Highland Avenue,Norwalk,CT,6854,203-852-9488,203-899-2813,bmhs.norwalkps.org,NA,NA,NA,0,0,0,0,0,0,0,0,0,0,1,1,1,1,"Brien McMahon High School, Norwalk, CT",-73.4331532,41.0856093
Public Schools,Norwalk School District,1030511,Center for Global Studies,300 Highland Avenue,Norwalk,CT,6854,203-852-9488 x11007,NA,cgs.norwalkps.org/,NA,NA,Yes,0,0,0,0,0,0,0,0,0,0,1,1,1,1,"Center for Global Studies, Norwalk, CT",-73.4331531,41.0856093
Public Schools,Norwalk School District,1036111,Norwalk High School,23 Calvin Murphy Street,Norwalk,CT,06851-5597,203-838-4481,203-899-2815,nhs.norwalkps.org/,NA,NA,NA,0,0,0,0,0,0,0,0,0,0,1,1,1,1,"Norwalk High School, Norwalk, CT",-73.389911,41.1222631
Public Schools,Norwalk School District,1036311,Norwalk Pathways Academy at Briggs,350 Main Street,Norwalk,CT,06851-1510,203-899-2820,203-899-2824,npa.norwalkps.org/,NA,NA,NA,0,0,0,0,0,0,0,0,0,0,1,1,1,1,"Norwalk Pathways Academy at Briggs, Norwalk, CT",-73.4254035,41.1388873
Public Schools,Old Saybrook School District,1066111,Old Saybrook Senior High School,1111 Boston Post Rd.,Old Saybrook,CT,06475-4403,860-395-3175,NA,www.oldsaybrookschools.org,NA,NA,NA,0,0,0,0,0,0,0,0,0,0,1,1,1,1,"Old Saybrook Senior High School, Old Saybrook, CT",-72.3969355,41.2886268
Public Schools,Oxford School District,1086011,Oxford High School,61 Quaker Farms Rd.,Oxford,CT,6478,203-888-2468,NA,NA,NA,NA,NA,0,0,0,0,0,0,0,0,0,0,1,1,1,1,"Oxford High School, Oxford, CT",-73.1380897,41.3829347
Public Charter Schools,Path Academy District,2930113,Path Academy,832-842 Main Street,Willimantic,CT,6226,860-336-4200,NA,pathacademywindham.org,NA,NA,NA,0,0,0,0,0,0,0,0,0,0,1,1,1,1,"Path Academy, Willimantic, CT",-72.2148486,41.7121151
Public Schools,Plainville School District,1106111,Plainville High School,47 Robert Holcomb Way,Plainville,CT,6062,860-793-3220,NA,phs.plainvilleschools.org/,NA,NA,NA,0,0,0,0,0,0,0,0,0,0,1,1,1,1,"Plainville High School, Plainville, CT",-72.858029,41.6659273
Public Schools,Plymouth School District,1117111,Plymouth Alternative High School,77 Main Street,Terryville,CT,6786,860-314-8005,860-314-2766,plymouth.k12.ct.us,NA,NA,NA,0,0,0,0,0,0,0,0,0,0,1,1,1,1,"Plymouth Alternative High School, Terryville, CT",-73.0096944,41.6800602
Public Schools,Plymouth School District,1116111,Terryville High School,33 North Harwinton Avenue,Terryville,CT,6786,860-314-2777,860-314-2785,ths.plymouth.k12.ct.us,NA,NA,NA,0,0,0,0,0,0,0,0,0,0,1,1,1,1,"Terryville High School, Terryville, CT",-73.0342453,41.6883192
Public Schools,Putnam School District,1166111,Putnam High School,152 Woodstock Ave.,Putnam,CT,06260-1440,860-963-6905,NA,www.putnam.k12.ct.us/phs/index.html,NA,NA,NA,0,0,0,0,0,0,0,0,0,0,1,1,1,1,"Putnam High School, Putnam, CT",-71.9169209,41.9221427
Regional Schools,Regional School District 01,2016112,Housatonic Valley Regional High School,246 Warren Turnpike Rd.,Falls Village,CT,06031-1600,860-824-5123,NA,www.hvrhs.org,NA,NA,NA,0,0,0,0,0,0,0,0,0,0,1,1,1,1,"Housatonic Valley Regional High School, Falls Village, CT",-73.3623039,41.9370764
Regional Schools,Regional School District 04,2046112,Valley Regional High School,256 Kelsey Hill Rd.,Deep River,CT,06417-1699,860-526-5328,NA,www.reg4.k12.ct.us,NA,NA,NA,0,0,0,0,0,0,0,0,0,0,1,1,1,1,"Valley Regional High School, Deep River, CT",-72.4476591,41.3705524
Regional Schools,Regional School District 05,2056112,Amity Regional High School,25 Newton Rd.,Woodbridge,CT,06525-1598,203-397-4830,NA,www.amityregion5.org,NA,NA,NA,0,0,0,0,0,0,0,0,0,0,1,1,1,1,"Amity Regional High School, Woodbridge, CT",-73.0077248,41.3575551
Regional Schools,Regional School District 06,2066112,Wamogo Regional High School,98 Wamogo Rd.,Litchfield,CT,06759-3204,860-567-7410,NA,www.rsd6.org,NA,NA,NA,0,0,0,0,0,0,0,0,1,1,1,1,1,1,"Wamogo Regional High School, Litchfield, CT",-73.2252195,41.7280262
Regional Schools,Regional School District 07,2076112,Northwestern Regional High School,100 Battistoni Dr.,Winsted,CT,06098-1899,860-379-8525,NA,www.nwr7.com/HighSchool.html,NA,NA,NA,0,0,0,0,0,0,0,0,0,0,1,1,1,1,"Northwestern Regional High School, Winsted, CT",-73.0471688,41.9133932
Regional Schools,Regional School District 08,2086112,RHAM High School,85 Wall St.,Hebron,CT,6248,860-228-9474,NA,www.rhamhs.reg8.k12.ct.us/,NA,NA,NA,0,0,0,0,0,0,0,0,0,0,1,1,1,1,"RHAM High School, Hebron, CT",-72.3647604,41.6644022
Regional Schools,Regional School District 09,2096112,Joel Barlow High School,100 Black Rock Tpke.,Redding,CT,06896-3099,203-938-2508,203-938-2959,www.joelbarlowps.org,NA,NA,NA,0,0,0,0,0,0,0,0,0,0,1,1,1,1,"Joel Barlow High School, Redding, CT",-73.3390684,41.2996665
Regional Schools,Regional School District 10,2106112,Lewis S. Mills High School,26 Lyon Rd.,Burlington,CT,06013-1313,860-673-0423,NA,NA,NA,NA,NA,0,0,0,0,0,0,0,0,0,0,1,1,1,1,"Lewis S. Mills High School, Burlington, CT",-72.9876048,41.7800978
Regional Schools,Regional School District 11,2116112,Parish Hill High School,304 Parish Hill Rd.,Chaplin,CT,6235,860-455-9584,NA,www.parishhill.org,NA,NA,NA,0,0,0,0,0,0,0,0,1,1,1,1,1,1,"Parish Hill High School, Chaplin, CT",-72.1053861,41.7511213
Regional Schools,Regional School District 13,2136112,Coginchaug Regional High School,135 Pickett Ln.,Durham,CT,06422-2001,860-349-7215,NA,crhs.rsd13ct.org/,NA,NA,NA,0,0,0,0,0,0,0,0,0,0,1,1,1,1,"Coginchaug Regional High School, Durham, CT",-72.6692571,41.4768822
Regional Schools,Regional School District 14,2146112,Nonnewaug High School,"5 Minortown Road, P.O. Box 469",Woodbury,CT,06798-0469,203-263-2186,NA,www.ctreg14.org/NHS/nhs.htm,NA,NA,NA,0,0,0,0,0,0,0,0,0,0,1,1,1,1,"Nonnewaug High School, Woodbury, CT",-73.1897652,41.5583302
Regional Schools,Regional School District 15,2156212,Pomperaug Regional High School,234 Judd Rd.,Southbury,CT,6488,203-262-3200,NA,www.region15.org/phs,NA,NA,NA,0,0,0,0,0,0,0,0,0,0,1,1,1,1,"Pomperaug Regional High School, Southbury, CT",-73.1610296,41.5025524
Regional Schools,Regional School District 16,2166012,Woodland Regional High School,135 Back Rimmon Rd.,Beacon Falls,CT,06403-1199,203-881-5551,NA,www.region16ct.org,NA,NA,NA,0,0,0,0,0,0,0,0,0,0,1,1,1,1,"Woodland Regional High School, Beacon Falls, CT",-73.0825742,41.4255144
Regional Schools,Regional School District 17,2176112,Haddam-Killingworth High School,95 Little City Road,Higganum,CT,06441-0568,860-345-8541,NA,www.rsd17.org/schools1.shtml,NA,NA,NA,0,0,0,0,0,0,0,0,0,0,1,1,1,1,"Haddam-Killingworth High School, Higganum, CT",-72.5615717,41.464471
Regional Schools,Regional School District 18,2186112,Lyme-Old Lyme High School,69 Lyme St.,Old Lyme,CT,06371-2335,860-434-1651,860-434-8234,www.region18.org/page.cfm?p101,NA,NA,NA,0,0,0,0,0,0,0,0,0,0,1,1,1,1,"Lyme-Old Lyme High School, Old Lyme, CT",-72.3250615,41.3185646
Regional Schools,Regional School District 19,2196112,E. O. Smith High School,1235 Storrs Rd.,Storrs,CT,6268,860-487-0877,NA,www.eosmith.org/,NA,NA,NA,0,0,0,0,0,0,0,0,0,0,1,1,1,1,"E. O. Smith High School, Storrs, CT",-72.2443372,41.8028078
Public Schools,Ridgefield School District,1186111,Ridgefield High School,700 North Salem Rd.,Ridgefield,CT,06877-1716,203-894-5750,NA,www.ridgefield.org/rhs/index.html,NA,NA,NA,0,0,0,0,0,0,0,0,0,0,1,1,1,1,"Ridgefield High School, Ridgefield, CT",-73.5277591,41.3250965
Public Schools,Rocky Hill School District,1196111,Rocky Hill High School,50 Chapin Ave.,Rocky Hill,CT,6067,860-258-7721,860-258-7735,www.rockyhillps.us/RHHS/RHHS_Home.htm,NA,NA,NA,0,0,0,0,0,0,0,0,0,0,1,1,1,1,"Rocky Hill High School, Rocky Hill, CT",-72.6472796,41.6700447
Public Schools,Seymour School District,1246111,Seymour High School,2 Botsford Rd.,Seymour,CT,06483-2302,203-888-2561,NA,www.seymourschools.org/shs/default.htm,NA,NA,NA,0,0,0,0,0,0,0,0,0,0,1,1,1,1,"Seymour High School, Seymour, CT",-73.0986607,41.3851768
Public Schools,Shelton School District,1266111,Shelton High School,120 Meadow St.,Shelton,CT,06484-2276,203-922-3004,NA,sheltonpublicschools.org,NA,NA,NA,0,0,0,0,0,0,0,0,0,0,1,1,1,1,"Shelton High School, Shelton, CT",-73.1181234,41.3200857
Public Schools,Simsbury School District,1286111,Simsbury High School,34 Farms Village Rd.,Simsbury,CT,06070-2320,860-658-0451,NA,www.simsbury.k12.ct.us/page.cfm?p33,NA,NA,NA,0,0,0,0,0,0,0,0,0,0,1,1,1,1,"Simsbury High School, Simsbury, CT",-72.8215864,41.8707908
Public Schools,Somers School District,1296111,Somers High School,5 Vision Boulevard,Somers,CT,6071,860-749-2270,NA,www.somers.k12.ct.us/shs/shs_home.html,NA,NA,NA,0,0,0,0,0,0,0,0,0,0,1,1,1,1,"Somers High School, Somers, CT",-72.4614876,41.9800513
Public Schools,South Windsor School District,1326211,South Windsor High School,161 Nevers Rd.,South Windsor,CT,06074-2129,860-648-5000,860-648-5013,www.southwindsorschools.org/page.cfm?p83,NA,NA,NA,0,0,0,0,0,0,0,0,0,0,1,1,1,1,"South Windsor High School, South Windsor, CT",-72.5544389,41.8421829
Public Schools,Southington School District,1316211,Southington High School,720 Pleasant Street,Southington,CT,06489-2713,860-628-3229,NA,www.southingtonschools.org/our_schools/southington_high_school/index.html,NA,NA,NA,0,0,0,0,0,0,0,0,0,0,1,1,1,1,"Southington High School, Southington, CT",-72.8615408,41.6166563
Public Schools,Stafford School District,1346111,Stafford High School,145 Orcuttville Rd.,Stafford Springs,CT,06076-3719,860-684-4233,NA,www.stafford.k12.ct.us,NA,NA,NA,0,0,0,0,0,0,0,0,0,0,1,1,1,1,"Stafford High School, Stafford Springs, CT",-72.3070857,41.9754116
Public Charter Schools,Stamford Academy District,2826013,Stamford Academy,229 North St.,Stamford,CT,6901,203-324-6300,NA,https:,NA,NA,NA,0,0,0,0,0,0,0,0,0,0,1,1,1,1,"Stamford Academy, Stamford, CT",-73.5364836,41.0593697
Public Schools,Stamford School District,1356111,Stamford High School,55 Strawberry Hill Ave.,Stamford,CT,06902-2608,203-977-4223,NA,www.stamfordhigh.org/,NA,NA,NA,0,0,0,0,0,0,0,0,0,0,1,1,1,1,"Stamford High School, Stamford, CT",-73.5317945,41.0620338
Public Schools,Stamford School District,1356411,The Academy of Information Technology,411 High Ridge Road,Stamford,CT,6905,203-977-4336,NA,www.aitestamford.org,NA,NA,Yes,0,0,0,0,0,0,0,0,0,0,1,1,1,1,"The Academy of Information Technology, Stamford, CT",-73.546395,41.0846373
Public Schools,Stamford School District,1356311,Westhill High School,125 Roxbury Rd.,Stamford,CT,06902-1215,203-977-4477,NA,www.westhillweb.com/,NA,NA,NA,0,0,0,0,0,0,0,0,0,0,1,1,1,1,"Westhill High School, Stamford, CT",-73.5647645,41.0916671
Public Schools,Stratford School District,1386111,Stratford High School,45 North Parade,Stratford,CT,06615-5822,203-385-4230,NA,stratfordhigh.stratfordk12.org/,NA,NA,NA,0,0,0,0,0,0,0,0,0,0,1,1,1,1,"Stratford High School, Stratford, CT",-73.132864,41.1969273
Public Schools,Suffield School District,1396111,Suffield High School,1060 Sheldon Street,West Suffield,CT,6093,860-668-3810,NA,www.suffield.org/highschool/Default.htm,NA,NA,NA,0,0,0,0,0,0,0,0,0,0,1,1,1,1,"Suffield High School, West Suffield, CT",-72.6927204,41.9807467
Public Charter Schools,The Bridge Academy District,2696113,The Bridge Academy,160 Pulaski Street,Bridgeport,CT,6608,203-336-9999,NA,NA,NA,NA,NA,0,0,0,0,0,0,0,0,1,1,1,1,1,1,"The Bridge Academy, Bridgeport, CT",-73.1842439,41.184048
Endowed and Incorporated Academies Schools,The Gilbert School District,9026122,The Gilbert School,200 Williams Ave.,Winsted,CT,06098-1190,860-379-8521,860-379-6163,www.gilbertschool.org,NA,NA,NA,0,0,0,0,0,0,0,0,1,1,1,1,1,1,"The Gilbert School, Winsted, CT",-73.07244,41.9306359
Public Schools,Thompson School District,1416111,Tourtellotte Memorial High School,785 Riverside Dr.,North Grosvenordale,CT,06255-0835,860-923-9303,NA,www.tmhs.thompsonk12.org,NA,NA,NA,0,0,0,0,0,0,0,0,0,0,1,1,1,1,"Tourtellotte Memorial High School, North Grosvenordale, CT",-71.897964,41.977303
Public Schools,Tolland School District,1426111,Tolland High School,1 Eagle Hill,Tolland,CT,06084-3323,860-870-6818,860-870-6826,www.ths.tolland.k12.ct.us,NA,NA,NA,0,0,0,0,0,0,0,0,0,0,1,1,1,1,"Tolland High School, Tolland, CT",-72.3396133,41.8717929
Public Schools,Torrington School District,1436111,Torrington High School,50 Major Besse Dr.,Torrington,CT,06790-3793,860-489-2294,NA,www.torrington.org/our_schools/torrington_high_school/index.html,NA,NA,NA,0,0,0,0,0,0,0,0,0,0,1,1,1,1,"Torrington High School, Torrington, CT",-73.1108784,41.8161548
Public Schools,Trumbull School District,1446111,Trumbull High School,72 Strobel Rd.,Trumbull,CT,06611-5510,203-452-4555,NA,NA,NA,NA,NA,0,0,0,0,0,0,0,0,0,0,1,1,1,1,"Trumbull High School, Trumbull, CT",-73.1928208,41.2645256
Public Schools,Vernon School District,1466111,Rockville High School,70 Loveland Hill,Vernon,CT,06066-2304,860-870-6050,NA,www.rockvillehighschool.org/,NA,NA,NA,0,0,0,0,0,0,0,0,0,0,1,1,1,1,"Rockville High School, Vernon, CT",-72.4799723,41.8569939
Public Schools,Wallingford School District,1486111,Lyman Hall High School,70 Pond Hill Road,Wallingford,CT,06492-4809,203-294-5350,203-294-5353,www.wallingford.k12.ct.us/page.cfm?p11176,NA,NA,NA,0,0,0,0,0,0,0,0,0,0,1,1,1,1,"Lyman Hall High School, Wallingford, CT",-72.8184949,41.437635
Public Schools,Wallingford School District,1486211,Mark T. Sheehan High School,142 Hope Hill Road,Wallingford,CT,06492-2254,203-294-5900,203-294-5980,www.wallingford.k12.ct.us/page.cfm?p11355,NA,NA,NA,0,0,0,0,0,0,0,0,0,0,1,1,1,1,"Mark T. Sheehan High School, Wallingford, CT",-72.8359585,41.4854566
Public Schools,Waterbury School District,1516211,Crosby High School,300 Pierpont Rd.,Waterbury,CT,06705-3905,203-574-8061,NA,www.crosbyhigh.com/,NA,NA,NA,0,0,0,0,0,0,0,0,0,0,1,1,1,1,"Crosby High School, Waterbury, CT",-72.9728745,41.5458635
Public Schools,Waterbury School District,1516411,John F. Kennedy High School,422 Highland Ave.,Waterbury,CT,06708-3443,203-574-8153,NA,www.khswtby.org/,NA,NA,NA,0,0,0,0,0,0,0,0,0,0,1,1,1,1,"John F. Kennedy High School, Waterbury, CT",-73.0572223,41.5458901
Public Schools,Waterbury School District,1516011,Waterbury Arts Magnet School (High),16 South Elm St.,Waterbury,CT,6706,203-573-6300,NA,NA,NA,NA,Yes,0,0,0,0,0,0,0,0,0,0,1,1,1,1,"Waterbury Arts Magnet School (High), Waterbury, CT",-73.0388674,41.5547227
Public Schools,Waterbury School District,1516711,Waterbury Career Academy,175 Birch Street,Waterbury,CT,6704,203-574-8000,NA,www.waterbury.k12.ct.us,NA,NA,NA,1,0,0,0,0,0,0,0,0,0,1,1,1,1,"Waterbury Career Academy, Waterbury, CT",-73.0203011,41.5575389
Public Schools,Waterbury School District,1516311,Wilby High School,568 Bucks Hill Rd.,Waterbury,CT,06704-1296,203-574-8100,NA,www.wilbyhs.org/,NA,NA,NA,0,0,0,0,0,0,0,0,0,0,1,1,1,1,"Wilby High School, Waterbury, CT",-73.0265679,41.604199
Public Schools,Waterford School District,1526111,Waterford High School,20 Rope Ferry Rd.,Waterford,CT,06385-2894,860-437-6956,NA,www.waterfordschools.org/whsnew/index.htm,NA,NA,NA,0,0,0,0,0,0,0,0,0,0,1,1,1,1,"Waterford High School, Waterford, CT",-72.1290064,41.3416973
Public Schools,Watertown School District,1536111,Watertown High School,324 French St.,Watertown,CT,06795-2929,860-945-4810,860-945-3348,www.watertownps.org,NA,NA,NA,0,0,0,0,0,0,0,0,0,0,1,1,1,1,"Watertown High School, Watertown, CT",-73.1014924,41.5949005
Public Schools,West Hartford School District,1556111,Conard High School,110 Beechwood Rd.,West Hartford,CT,6107,860-231-5000,NA,conard.whps.org,NA,NA,NA,0,0,0,0,0,0,0,0,0,0,1,1,1,1,"Conard High School, West Hartford, CT",-72.7515446,41.7361993
Public Schools,West Hartford School District,1556211,Hall High School,975 North Main St.,West Hartford,CT,06117-2057,860-232-4561,NA,hall.whps.org,NA,NA,NA,0,0,0,0,0,0,0,0,0,0,1,1,1,1,"Hall High School, West Hartford, CT",-72.7510632,41.7943418
Public Schools,Westbrook School District,1546111,Westbrook High School,156 McVeagh Rd.,Westbrook,CT,6498,860-399-6214,NA,www.westbrookctschools.org/whs/,NA,NA,NA,0,0,0,0,0,0,0,0,0,0,1,1,1,1,"Westbrook High School, Westbrook, CT",-72.4538044,41.2984594
Public Schools,Weston School District,1576111,Weston High School,115 School Rd.,Weston,CT,06883-1623,203-291-1602,NA,www.westonk12-ct.com/WHS/whshome.html,NA,NA,NA,0,0,0,0,0,0,0,0,0,0,1,1,1,1,"Weston High School, Weston, CT",-73.3780535,41.210428
Public Schools,Westport School District,1586111,Staples High School,70 North Ave.,Westport,CT,06880-2720,203-341-1210,NA,shs.westport.k12.ct.us/staplesLMC/,NA,NA,NA,0,0,0,0,0,0,0,0,0,0,1,1,1,1,"Staples High School, Westport, CT",-73.328314,41.1544307
Public Schools,Wethersfield School District,1596111,Wethersfield High School,411 Wolcott Hill Rd.,Wethersfield,CT,06109-2798,860-571-8200,NA,NA,NA,NA,NA,0,0,0,0,0,0,0,0,0,0,1,1,1,1,"Wethersfield High School, Wethersfield, CT",-72.6711394,41.7074175
Public Schools,Wilton School District,1616111,Wilton High School,395 Danbury Rd.,Wilton,CT,06897-2006,203-762-0381,NA,www.wilton.k12.ct.us/whs/,NA,NA,NA,0,0,0,0,0,0,0,0,0,0,1,1,1,1,"Wilton High School, Wilton, CT",-73.4330463,41.2104705
Public Schools,Windham School District,1636111,Windham High School,355 High St.,Willimantic,CT,06226-1306,860-465-2480,NA,whs.windham.k12.ct.us/,NA,NA,NA,0,0,0,0,0,0,0,0,0,0,1,1,1,1,"Windham High School, Willimantic, CT",-72.2147817,41.723156
Public Schools,Windsor Locks School District,1656111,Windsor Locks High School,58 South Elm St.,Windsor Locks,CT,06096-2399,860-292-5032,NA,www.wlps.org/whs/,NA,NA,NA,0,0,0,0,0,0,0,0,0,0,1,1,1,1,"Windsor Locks High School, Windsor Locks, CT",-72.6430531,41.9213507
Public Schools,Windsor School District,1646111,Windsor High School,50 Sage Park Rd.,Windsor,CT,06095-3329,860-687-2020,NA,www.windsorct.org/whs/index.htm,NA,NA,NA,0,0,0,0,0,0,0,0,0,0,1,1,1,1,"Windsor High School, Windsor, CT",-72.6551022,41.8443326
Public Schools,Wolcott School District,1666111,Wolcott High School,457 Bound Line Rd.,Wolcott,CT,06716-2007,203-879-8164,NA,www.whs.wolcottps.org/,NA,NA,NA,0,0,0,0,0,0,0,0,0,0,1,1,1,1,"Wolcott High School, Wolcott, CT",-72.9795493,41.6070419
Public Schools,Avon School District,46111,Avon High School,510 West Avon Rd.,Avon,CT,06001-2519,860-404-4740,860-404-4743,www.avon.k12.ct.us/AvonHigh/,NA,NA,NA,0,0,0,0,0,0,0,0,0,0,1,1,1,1,"Avon High School, Avon, CT",-72.8621958,41.7834386
Public Schools,Berlin School District,76111,Berlin High School,139 Patterson Way,Berlin,CT,06037-3146,860-828-6577,NA,www.berlinschools.org,NA,NA,NA,0,0,0,0,0,0,0,0,0,0,1,1,1,1,"Berlin High School, Berlin, CT",-72.7527695,41.6215191
Public Schools,Bloomfield School District,116411,Learning Academy at Bloomfield,20-28 Sargeant Street,Hartford,CT,6105,860-761-7300,860-297-0174,www.bloomfieldschools.org,NA,NA,NA,0,0,0,0,0,0,0,0,0,0,1,1,1,1,"Learning Academy at Bloomfield, Hartford, CT",-72.6813585,41.7593454
Public Schools,Bolton School District,126111,Bolton High School,72 Brandy St.,Bolton,CT,06043-7697,860-643-2768,NA,www.boltonpublicschools.com,NA,NA,NA,0,0,0,0,0,0,0,0,0,0,1,1,1,1,"Bolton High School, Bolton, CT",-72.4216536,41.7604488
Public Charter Schools,Bridgeport Achievement First District,2850113,Achievement First Bridgeport Academy,655 Stillman St.,Bridgeport,CT,06608-1331,203-338-0593,203-338-0714,www.achievementfirst.org/schools/connecticut-schools/achievement-first-bridgeport-academy-elementary-school/about/,NA,NA,NA,0,1,1,1,1,1,1,1,1,1,1,1,1,1,"Achievement First Bridgeport Academy, Bridgeport, CT",-73.1848355,41.1889243
Public Schools,Bridgeport School District,151611,Bridgeport Military Academy,160 Iranistan Avenue,Bridgeport,CT,6605,203-275-3961,NA,www.bridgeportmilitaryacademy.org/,NA,NA,NA,0,0,0,0,0,0,0,0,0,0,1,1,1,1,"Bridgeport Military Academy, Bridgeport, CT",-73.1957338,41.1638784
Regional Education Service Center Schools,Capitol Region Education Council,2416114,Metropolitan Learning Center for Global and International Studies,1551 Blue Hills Ave.,Bloomfield,CT,6002,860-242-7834,NA,www.crec.org/schools/magnet.php,NA,NA,Yes,0,0,0,0,0,0,0,1,1,1,1,1,1,1,"Metropolitan Learning Center for Global and International Studies, Bloomfield, CT",-72.7266739,41.8707894
Public Schools,Clinton School District,276111,The Morgan School,71 Killingworth Tpke.,Clinton,CT,06413-1399,860-664-6504,860-664-6548,https://sites.google.com/a/clintonpublic.net/morgan/,NA,NA,NA,0,0,0,0,0,0,0,0,0,0,1,1,1,1,"The Morgan School, Clinton, CT",-72.5325564,41.3003244
CT Technical Education and Career Schools,Connecticut Technical Education and Career System,9001516,A. I. Prince Technical High School,401 Flatbush Ave.,Hartford,CT,6106,860-951-7112,NA,www.cttech.org/PRINCE/index.htm,NA,NA,NA,0,0,0,0,0,0,0,0,0,0,1,1,1,1,"A. I. Prince Technical High School, Hartford, CT",-72.7057918,41.7416983
CT Technical Education and Career Schools,Connecticut Technical Education and Career System,9001116,Bullard-Havens Technical High School,500 Palisade Ave.,Bridgeport,CT,06610-3458,203-579-6333,NA,www.cttech.org/bullard-havens/index.htm,NA,NA,NA,0,0,0,0,0,0,0,0,0,0,1,1,1,1,"Bullard-Havens Technical High School, Bridgeport, CT",-73.1634847,41.2005807
CT Technical Education and Career Schools,Connecticut Technical Education and Career System,9001716,H. C. Wilcox Technical High School,298 Oregon Rd.,Meriden,CT,6450,203-238-6260,NA,www.cttech.org/WILCOX/index.htm,NA,NA,NA,0,0,0,0,0,0,0,0,0,0,1,1,1,1,"H. C. Wilcox Technical High School, Meriden, CT",-72.83092,41.5291331
CT Technical Education and Career Schools,Connecticut Technical Education and Career System,9001616,Howell Cheney Technical High School,791 West Middle Tpke.,Manchester,CT,6040,860-649-5396,NA,www.cttech.org/CHENEY/index.htm,NA,NA,NA,0,0,0,0,0,0,0,0,0,0,1,1,1,1,"Howell Cheney Technical High School, Manchester, CT",-72.5615473,41.781937
CT Technical Education and Career Schools,Connecticut Technical Education and Career System,9002416,Windham Technical High School,210 Birch St.,Willimantic,CT,06226-2108,860-456-3879,NA,www.cttech.org/WINDHAM/index.htm,NA,NA,NA,0,0,0,0,0,0,0,0,0,0,1,1,1,1,"Windham Technical High School, Willimantic, CT",-72.2203153,41.7198896
Public Schools,East Hartford School District,436311,Connecticut IB Academy,857 Forbes St.,East Hartford,CT,6118,860-622-5590,NA,NA,NA,NA,Yes,0,0,0,0,0,0,0,0,0,0,1,1,1,1,"Connecticut IB Academy, East Hartford, CT",-72.6061475,41.7542869
Regional Education Service Center Schools,Eastern Connecticut Regional Educational Service Center (EASTCONN),2536014,Arts at the Capitol Theater Magnet School (ACT),896 Main Street,Willimantic,CT,6226,860-465-5636,860-465-8115,NA,NA,NA,Yes,0,0,0,0,0,0,0,0,0,0,1,1,1,1,"Arts at the Capitol Theater Magnet School (ACT), Willimantic, CT",-72.2161144,41.7122098
Regional Education Service Center Schools,Eastern Connecticut Regional Educational Service Center (EASTCONN),2536114,Quinebaug Middle College,742 Upper Maple St.,Danielson,CT,6239,860-932-4100,860-932-4950,NA,NA,NA,Yes,0,0,0,0,0,0,0,0,0,0,1,1,1,1,"Quinebaug Middle College, Danielson, CT",-71.889948,41.825226
Public Schools,Farmington School District,526111,Farmington High School,10 Monteith Dr,Farmington,CT,06032-1052,860-673-2514,NA,NA,NA,NA,NA,0,0,0,0,0,0,0,0,0,0,1,1,1,1,"Farmington High School, Farmington, CT",-72.8683481,41.7510611
Public Schools,Griswold School District,580111,Griswold Alternative School,1553 Glasgo Road,Griswold,CT,6351,860-376-9129,860-376-9122,griswoldpublicschools.org,NA,NA,NA,0,0,0,0,0,0,0,0,1,1,1,1,1,1,"Griswold Alternative School, Griswold, CT",-71.8977107,41.5777321
Public Schools,Hartford School District,645411,Hartford Magnet Trinity College Academy,53 Vernon Street,Hartford,CT,6103,860-757-6201,860-947-9935,NA,NA,NA,Yes,0,0,0,0,0,0,0,1,1,1,1,1,1,1,"Hartford Magnet Trinity College Academy, Hartford, CT",-72.6867744,41.7502171
Public Schools,Meriden School District,806111,Francis T. Maloney High School,121 Gravel St.,Meriden,CT,06450-4611,203-238-2334,NA,www.meriden.k12.ct.us/maloney/Maloney_WEB/index.htm,NA,NA,NA,0,0,0,0,0,0,0,0,0,0,1,1,1,1,"Francis T. Maloney High School, Meriden, CT",-72.7728953,41.5318068
Public Schools,Milford School District,846211,Jonathan Law High School,20 Lansdale Ave.,Milford,CT,06460-5199,203-783-3574,NA,NA,NA,NA,NA,0,0,0,0,0,0,0,0,0,0,1,1,1,1,"Jonathan Law High School, Milford, CT",-73.0888519,41.203944
Public Schools,New Haven School District,936611,High School In The Community,175 Water St.,New Haven,CT,6511,475-220-6200,203-946-7132,www.nhps.net,NA,NA,Yes,0,0,0,0,0,0,0,0,0,0,1,1,1,1,"High School In The Community, New Haven, CT",-72.9222607,41.301877
Public Schools,New Haven School District,936311,Hill Regional Career High School,140 Legion Ave.,New Haven,CT,6519,475-220-5000,203-946-5949,www.nhps.net,NA,NA,Yes,0,0,0,0,0,0,0,0,0,0,1,1,1,1,"Hill Regional Career High School, New Haven, CT",-72.9407046,41.3056536
Public Schools,New Milford School District,966111,New Milford High School,388 Danbury Rd.,New Milford,CT,6776,860-350-6647,NA,www.newmilfordps.org/nhs/,NA,NA,NA,0,0,0,0,0,0,0,0,0,0,1,1,1,1,"New Milford High School, New Milford, CT",-73.4247323,41.5270263
Endowed and Incorporated Academies Schools,Norwich Free Academy District,9016122,Norwich Free Academy,305 Broadway,Norwich,CT,6360,860-887-2505,860-889-6196,www.nfaschool.org,NA,NA,NA,0,0,0,0,0,0,0,0,0,0,1,1,1,1,"Norwich Free Academy, Norwich, CT",-72.082522,41.536985
Public Schools,Plainfield School District,1096111,Plainfield High School,"105 Putnam Road, P.O. Box 218",Central Village,CT,6332,860-564-6417,NA,www.plainfieldschools.org/page.cfm?p2502,NA,NA,NA,0,0,0,0,0,0,0,0,0,0,1,1,1,1,"Plainfield High School, Central Village, CT",-71.9063661,41.7276524
Public Schools,Portland School District,1136111,Portland High School,95 High Street,Portland,CT,6480,860-342-1720,NA,www.portlandctschools.org,NA,NA,NA,0,0,0,0,0,0,0,0,0,0,1,1,1,1,"Portland High School, Portland, CT",-72.6226304,41.5807761
Regional Schools,Regional School District 12,2120312,Shepaug Valley School,159 South Street,Washington,CT,06793-0000,860-868-7326,NA,svs.region-12.org,NA,NA,NA,0,0,0,0,0,0,0,1,1,1,1,1,1,1,"Shepaug Valley School, Washington, CT",-73.3059186,41.6017389
Public Schools,Stonington School District,1376111,Stonington High School,176 South Broad St.,Pawcatuck,CT,06379-1924,860-599-5781,NA,stoningtonhigh.org/,NA,NA,NA,0,0,0,0,0,0,0,0,0,0,1,1,1,1,"Stonington High School, Pawcatuck, CT",-71.8605895,41.3665767
Public Schools,Stratford School District,1386211,Bunnell High School,1 Bulldog Blvd.,Stratford,CT,06614-2333,203-385-4250,NA,bunnellhigh.stratfordk12.org/,NA,NA,NA,0,0,0,0,0,0,0,0,0,0,1,1,1,1,"Bunnell High School, Stratford, CT",-73.1392684,41.2248721
Public Schools,Thomaston School District,1406211,Thomaston High School,185 Branch Rd.,Thomaston,CT,06787-1984,860-283-3030,NA,www.thomastonschools.org,NA,NA,NA,0,0,0,0,0,0,0,0,1,1,1,1,1,1,"Thomaston High School, Thomaston, CT",-73.0958473,41.6583116
Public Schools,West Haven School District,1566111,West Haven High School,One McDonough Plaza,West Haven,CT,06516-5299,203-937-4360,203-937-4370,www.whschools.org,NA,NA,NA,0,0,0,0,0,0,0,0,0,0,1,1,1,1,"West Haven High School, West Haven, CT",-72.9586057,41.2594427
Endowed and Incorporated Academies Schools,Woodstock Academy District,9036122,Woodstock Academy,57 Academy Rd.,Woodstock,CT,6281,860-928-6575,NA,www.woodstockacademy.org,NA,NA,NA,0,0,0,0,0,0,0,0,0,0,1,1,1,1,"Woodstock Academy, Woodstock, CT",-71.975534,41.951017